{
  "addresses": [
    {
      "id": 1,
      "line1": "вул. Григорія Гуляницького, 9",
      "line2": "St. Hryhoriya Hulyanytskoho, 9",
      "postcode": "02218",
      "city": "Київ",
      "location_id": 1
    },
    {
      "id": 2,
      "line1": "вул. Велика Васильківська, 12",
      "line2": "St. Velika Vasylkivska, 12",
      "postcode": "02218",
      "city": "Київ",
      "location_id": 1
    },
    {
      "id": 3,
      "line1": "вул. Зої Космодем’янської 8",
      "line2": "St. Zoya Kosmodemyanska 8",
      "postcode": "02218",
      "city": "Київ",
      "location_id": 1
    },
    {
      "id": 4,
      "line1": "вул. Озерна 11",
      "line2": "St. Ozerna 11",
      "postcode": "02218",
      "city": "Львів",
      "location_id": 14
    },
    {
      "id": 5,
      "line1": "вул. Тичини 21",
      "line2": "St. Tychyny 21",
      "postcode": "02218",
      "city": "Львів",
      "location_id": 14
    },
    {
      "id": 6,
      "line1": "вул. М.Вербицького 6",
      "line2": "St. M. Verbytskoho 6",
      "postcode": "02218",
      "city": "Львів",
      "location_id": 14
    },
    {
      "id": 7,
      "line1": "вул. Олександра Даля 10",
      "line2": "St. Oleksandr Dahl 10",
      "postcode": "02218",
      "city": "Львів",
      "location_id": 1
    },
    {
      "id": 8,
      "line1": "вул. Травнева 22",
      "line2": "St. Travneva 22",
      "postcode": "02218",
      "city": "Львів",
      "location_id": 1
    },
    {
      "id": 9,
      "line1": "вул. Володимира Великого, 59",
      "line2": "St. Volodymyr Veliky, 59",
      "postcode": "02218",
      "city": "Львів",
      "location_id": 14
    },
    {
      "id": 10,
      "line1": "вул. Лемківська 10",
      "line2": "Lemkivska Street, 10",
      "postcode": "02218",
      "city": "Львів",
      "location_id": 14
    },

    {
      "id": 11,
      "line1": "вул. Бойківська 3",
      "line2": "Boikivska Street, 3",
      "postcode": "02218",
      "city": "Львів",
      "location_id": 14
    },
    {
      "id": 12,
      "line1": "вул. Вербова 8",
      "line2": "Verbova Street, 8",
      "postcode": "02218",
      "city": "Львів",
      "location_id": 14
    },
    {
      "id": 13,
      "line1": "вул. Грушева 42",
      "line2": "Hrusheva Street, 42",
      "postcode": "02218",
      "city": "Львів",
      "location_id": 14
    },
    {
      "id": 14,
      "line1": "вул. Замкова 11",
      "line2": "Zamkova Street, 11",
      "postcode": "02218",
      "city": "Львів",
      "location_id": 14
    },
    {
      "id": 15,
      "line1": "вул. Досвітня 3",
      "line2": "Dosvitnia Street, 3",
      "postcode": "02218",
      "city": "Львів",
      "location_id": 14
    },
    {
      "id": 16,
      "line1": "вул. Грушевського 35",
      "line2": "Hrushevskogo Street, 35",
      "postcode": "02218",
      "city": "Львів",
      "location_id": 14
    },
    {
      "id": 17,
      "line1": "вул. Вузька 10",
      "line2": "Vuzka Street, 10",
      "postcode": "02218",
      "city": "Львів",
      "location_id": 14
    },
    {
      "id": 18,
      "line1": "вул. Травнева 22",
      "line2": "Travniva Street, 22",
      "postcode": "02218",
      "city": "Київ",
      "location_id": 1
    },
    {
      "id": 19,
      "line1": "вул. Борщагівська 101",
      "line2": "Borshchahivska Street, 101",
      "postcode": "02218",
      "city": "Київ",
      "location_id": 1
    },
    {
      "id": 20,
      "line1": "пр. Щербакова 7",
      "line2": "Shcherbakova Avenue, 7",
      "postcode": "02218",
      "city": "Київ",
      "location_id": 1
    },
    {
      "id": 21,
      "line1": "вул. Героїв Зміїного 4",
      "line2": "Heroiv Zmiinoho Street, 4",
      "postcode": "02218",
      "city": "Київ",
      "location_id": 1
    },
    {
      "id": 22,
      "line1": "вул. Січеславська 9",
      "line2": "Sicheslavska Street, 9",
      "postcode": "02218",
      "city": "Київ",
      "location_id": 1
    },

    {
      "id": 23,
      "line1": "вул. Грушевського 35",
      "line2": "Hrushevskogo Street, 35",
      "postcode": "02218",
      "city": "Львів",
      "location_id": 14
    },
    {
      "id": 24,
      "line1": "вул. Досвітня 3",
      "line2": "Dosvitnia Street, 3",
      "postcode": "02218",
      "city": "Львів",
      "location_id": 14
    },
    {
      "id": 25,
      "line1": "вул. Січеславська 9",
      "line2": "Sicheslavska Street, 9",
      "postcode": "02218",
      "city": "Київ",
      "location_id": 1
    },
    {
      "id": 26,
      "line1": "вул. Грушева 42",
      "line2": "Hrusheva Street, 42",
      "postcode": "02218",
      "city": "Львів",
      "location_id": 14
    },
    {
      "id": 27,
      "line1": "вул. Висока 2",
      "line2": "Vysoka Street, 2",
      "postcode": "02218",
      "city": "Львів",
      "location_id": 14
    },
    {
      "id": 28,
      "line1": "вул. Лемківська 10",
      "line2": "Lemkivska Street, 10",
      "postcode": "02218",
      "city": "Львів",
      "location_id": 14
    },
    {
      "id": 29,
      "line1": "вул. Замкова 11",
      "line2": "Zamkova Street, 11",
      "postcode": "02218",
      "city": "Львів",
      "location_id": 14
    },
    {
      "id": 30,
      "line1": "вул. Богуна",
      "line2": "Bohuna Street",
      "postcode": "02218",
      "city": "Львів",
      "location_id": 14
    },
    {
      "id": 31,
      "line1": "вул. Січових Стрільців",
      "line2": "Sichovykh Striltsiv Street",
      "postcode": "02218",
      "city": "Львів",
      "location_id": 14
    },
    {
      "id": 32,
      "line1": "вул. Міжгірна",
      "line2": "Mizhhirna Street",
      "postcode": "02218",
      "city": "Львів",
      "location_id": 14
    },
    {
      "id": 33,
      "line1": "вул. Нечуя-Левицького",
      "line2": "Nechuia-Levytskoho Street",
      "postcode": "02218",
      "city": "Львів",
      "location_id": 14
    },

    {
      "id": 34,
      "line1": "вул. Андріївська 10",
      "line2": "Andriivska Street, 10",
      "postcode": "02218",
      "city": "Київська область, м.Крюківщина",
      "location_id": 2
    },
    {
      "id": 35,
      "line1": "вул. Балукова 7",
      "line2": "Balukova Street, 7",
      "postcode": "02218",
      "city": "Київська область, м.Крюківщина",
      "location_id": 2
    },
    {
      "id": 36,
      "line1": "вул. Кірова 22",
      "line2": "Kirova Street, 22",
      "postcode": "02218",
      "city": "Київська область, м.Крюківщина",
      "location_id": 2
    },
    {
      "id": 37,
      "line1": "вул. Марії Приймаченко 40",
      "line2": "Mariyi Pryimachenko Street, 40",
      "postcode": "02218",
      "city": "Київська область, м.Вишневе",
      "location_id": 2
    },
    {
      "id": 38,
      "line1": "вул. Паркова 4",
      "line2": "Parkova Street, 4",
      "postcode": "02218",
      "city": "Київська область, м.Вишневе",
      "location_id": 2
    },
    {
      "id": 39,
      "line1": "вул. Кузьми Скрябіна 7",
      "line2": "Kuzmy Skryabina Street, 7",
      "postcode": "02218",
      "city": "Київська область, м.Вишневе",
      "location_id": 2
    },
    {
      "id": 40,
      "line1": "вул. Кільцева 10",
      "line2": "Kiltseva Street, 10",
      "postcode": "02218",
      "city": "Київ",
      "location_id": 1
    },
    {
      "id": 41,
      "line1": "вул. Польова 67",
      "line2": "Polova Street, 67",
      "postcode": "02218",
      "city": "Київ",
      "location_id": 1
    },
    {
      "id": 42,
      "line1": "вул. Кошового 9",
      "line2": "Koshovoho Street, 9",
      "postcode": "02218",
      "city": "Київська область, м.Глеваха",
      "location_id": 2
    },
    {
      "id": 43,
      "line1": "вул. Авіаційна 13",
      "line2": "Aviatsiina Street, 13",
      "postcode": "02218",
      "city": "Київська область, м.Глеваха",
      "location_id": 2
    },
    {
      "id": 44,
      "line1": "вул. Б. Хмельницького 2",
      "line2": "Bohdana Khmelnytskoho Street, 2",
      "postcode": "02218",
      "city": "Київська область, м.Глеваха",
      "location_id": 2
    },
    {
      "id": 45,
      "line1": "вул. Урицького 20",
      "line2": "Urytskoho Street, 20",
      "postcode": "02218",
      "city": "Київ",
      "location_id": 1
    },
    {
      "id": 46,
      "line1": "вул. Січових Стрільців 3",
      "line2": "Sichovykh Striltsiv Street, 3",
      "postcode": "02218",
      "city": "Київ",
      "location_id": 1
    },
    {
      "id": 47,
      "line1": "вул. Шелестівка 8",
      "line2": "Shelestivka Street, 8",
      "postcode": "02218",
      "city": "Київська область, м.Бориспіль",
      "location_id": 2
    },
    {
      "id": 48,
      "line1": "вул. Івана Виговського 34",
      "line2": "Ivana Vyhovskoho Street, 34",
      "postcode": "02218",
      "city": "Київська область, м.Бориспіль",
      "location_id": 2
    },
    {
      "id": 49,
      "line1": "вул. Б. Хмельницького 2",
      "line2": "Bohdana Khmelnytskoho Street, 2",
      "postcode": "02218",
      "city": "Київська область, м.Глеваха",
      "location_id": 2
    },
    {
      "id": 50,
      "line1": "вул. Квітнева 10",
      "line2": "Kvitneva Street, 10",
      "postcode": "02218",
      "city": "Гатне",
      "location_id": 2
    },
    {
      "id": 51,
      "line1": "вул. Січових Стрільців 3",
      "line2": "Sichovykh Striltsiv Street, 3",
      "postcode": "02218",
      "city": "Київ",
      "location_id": 1
    },
    {
      "id": 52,
      "line1": "вул. Українських Героїв 5",
      "line2": "Ukrainskykh Heroiv Street, 5",
      "postcode": "02218",
      "city": "Київ",
      "location_id": 1
    },
    {
      "id": 53,
      "line1": "вул. Івана Виговського 34",
      "line2": "Ivana Vyhovskoho Street, 34",
      "postcode": "02218",
      "city": "Київська область м.Бориспіль",
      "location_id": 2
    },
    {
      "id": 54,
      "line1": "вул. Паркова 4",
      "line2": "Parkova Street, 4",
      "postcode": "02218",
      "city": "Київська область м.Вишневе",
      "location_id": 2
    },
    {
      "id": 55,
      "line1": "вул. Ярова 30",
      "line2": "Yarova Street, 30",
      "postcode": "02218",
      "city": "Київ",
      "location_id": 1
    },
    {
      "id": 56,
      "line1": "вул. Дарницька 7",
      "line2": "Darnytska Street, 7",
      "postcode": "02218",
      "city": "Київ",
      "location_id": 1
    },
    {
      "id": 57,
      "line1": "вул. Бандери 70",
      "line2": "Bandery Street, 70",
      "postcode": "02218",
      "city": "Київ",
      "location_id": 1
    },
    {
      "id": 58,
      "line1": "вул. Романа Ратушного 15",
      "line2": "Romana Ratushnoho Street, 15",
      "postcode": "02218",
      "city": "Київ",
      "location_id": 1
    },
    {
      "id": 59,
      "line1": "вул. Сергія Котенка 27",
      "line2": "Serhiya Kotenka Street, 27",
      "postcode": "02218",
      "city": "Київ",
      "location_id": 1
    },
    {
      "id": 60,
      "line1": "вул. Селецька 5",
      "line2": "Seletska Street, 5",
      "postcode": "02218",
      "city": "Житомир",
      "location_id": 7
    },
    {
      "id": 61,
      "line1": "вул. Басейна 65",
      "line2": "Baseina Street, 65",
      "postcode": "02218",
      "city": "Житомир",
      "location_id": 7
    },
    {
      "id": 62,
      "line1": "вул. Гоголівська 10",
      "line2": "Hoholivska Street, 10",
      "postcode": "02218",
      "city": "Житомир",
      "location_id": 7
    },
    {
      "id": 63,
      "line1": "вул. Лісова 6",
      "line2": "Lisova Street, 6",
      "postcode": "02218",
      "city": "Житомир",
      "location_id": 7
    },
    {
      "id": 64,
      "line1": "вул. Ольжича 13",
      "line2": "Olzhycha Street, 13",
      "postcode": "02218",
      "city": "Житомир",
      "location_id": 7
    },
    {
      "id": 65,
      "line1": "вул. Соборна 32",
      "line2": "Soborna Street, 32",
      "postcode": "02218",
      "city": "Житомир",
      "location_id": 7
    },
    {
      "id": 66,
      "line1": "вул. Івана Огієнка 55",
      "line2": "Ivana Ohienka Street, 55",
      "postcode": "02218",
      "city": "Житомир",
      "location_id": 7
    },
    {
      "id": 67,
      "line1": "вул. Степана Бандери 60",
      "line2": "Stepana Bandery Street, 60",
      "postcode": "02218",
      "city": "Житомир",
      "location_id": 7
    },
    {
      "id": 68,
      "line1": "вул. Троянівська 5",
      "line2": "Troyanivska Street, 5",
      "postcode": "02218",
      "city": "Житомир",
      "location_id": 7
    },
    {
      "id": 69,
      "line1": "вул. Чорновола 11",
      "line2": "Chornovola Street, 11",
      "postcode": "02218",
      "city": "Житомир",
      "location_id": 7
    },
    {
      "id": 70,
      "line1": "вул. Шевченка 7",
      "line2": "Shevchenka Street, 7",
      "postcode": "02218",
      "city": "Житомир",
      "location_id": 7
    },
    {
      "id": 71,
      "line1": "вул. Івана Богуна 27",
      "line2": "Ivana Bohuna Street, 27",
      "postcode": "02218",
      "city": "Житомир",
      "location_id": 7
    },
    {
      "id": 72,
      "line1": "вул. Місячна 11",
      "line2": "Misiachna Street, 11",
      "postcode": "02218",
      "city": "Київ",
      "location_id": 1
    },
    {
      "id": 73,
      "line1": "вул. Межова 4",
      "line2": "Mezhova Street, 4",
      "postcode": "02218",
      "city": "Київ",
      "location_id": 1
    },
    {
      "id": 74,
      "line1": "Григоренка Петра пр-т",
      "line2": "Hryhorenka Petra Avenue",
      "postcode": "02218",
      "city": "Київ",
      "location_id": 1
    },
    {
      "id": 75,
      "line1": "вул. Петра Прокоповича 8",
      "line2": "Petra Prokopovycha Street, 8",
      "postcode": "02218",
      "city": "Київ",
      "location_id": 1
    },
    {
      "id": 76,
      "line1": "вул. Хотинська 17",
      "line2": "Khotynska Street, 17",
      "postcode": "02218",
      "city": "Київ",
      "location_id": 1
    },
    {
      "id": 77,
      "line1": "вул. Січових Стрільців 24",
      "line2": "Sichovykh Striltsiv Street, 24",
      "postcode": "02218",
      "city": "Київ",
      "location_id": 1
    },
    {
      "id": 78,
      "line1": "вул. Трипільська 3",
      "line2": "Trypilska Street, 3",
      "postcode": "02218",
      "city": "Київ",
      "location_id": 1
    },
    {
      "id": 79,
      "line1": "вул. Антоновича 20",
      "line2": "Antonovycha Street, 20",
      "postcode": "02218",
      "city": "Київ",
      "location_id": 1
    },
    {
      "id": 80,
      "line1": "вул. Остафія Дашкевича 55",
      "line2": "Ostafiia Dashkevycha Street, 55",
      "postcode": "02218",
      "city": "Київ",
      "location_id": 1
    },
    {
      "id": 81,
      "line1": "вул. Остафія Дашкевича 10",
      "line2": "Ostafiia Dashkevycha Street, 10",
      "postcode": "02218",
      "city": "Київ",
      "location_id": 1
    },
    {
      "id": 82,
      "line1": "м. Вінниця, Хмельницьке шосе 53",
      "line2": "Vinnytsia, Khmelnytske Shose, 53",
      "postcode": "21021",
      "city": "Вінницька область",
      "location_id": 3
    },
    {
      "id": 83,
      "line1": "вул. Дарницька 7",
      "line2": "Darnytska Street, 7",
      "postcode": "02218",
      "city": "Київ",
      "location_id": 1
    },
    {
      "id": 84,
      "line1": "вул. Січових Стрільців 3",
      "line2": "Sichovykh Striltsiv Street, 3",
      "postcode": "02218",
      "city": "Київ",
      "location_id": 1
    },
    {
      "id": 85,
      "line1": "вул. Грушевського 35",
      "line2": "Hrushevskoho Street, 35",
      "postcode": "02218",
      "city": "Львів",
      "location_id": 14
    },
    {
      "id": 86,
      "line1": "вул. Досвітня 3",
      "line2": "Dosvitnia Street, 3",
      "postcode": "02218",
      "city": "Львів",
      "location_id": 14
    },
    {
      "id": 87,
      "line1": "вул. Грушева 42",
      "line2": "Hrusheva Street, 42",
      "postcode": "02218",
      "city": "Львів",
      "location_id": 14
    },
    {
      "id": 88,
      "line1": "вул. Шевченка 16",
      "line2": "Shevchenka Street, 16",
      "postcode": "02218",
      "city": "Львів",
      "location_id": 14
    },
    {
      "id": 89,
      "line1": "вул. Лемківська 10",
      "line2": "Lemkivska Street, 10",
      "postcode": "02218",
      "city": "Львів",
      "location_id": 14
    },
    {
      "id": 90,
      "line1": "вул. Бойківська 3",
      "line2": "Boikivska Street, 3",
      "postcode": "02218",
      "city": "Львів",
      "location_id": 14
    },
    {
      "id": 91,
      "line1": "вул. Азовська 7",
      "line2": "Azovska Street, 7",
      "postcode": "02218",
      "city": "Львів",
      "location_id": 14
    },
    {
      "id": 92,
      "line1": "вул. Шахова 3",
      "line2": "Shakhova Street, 3",
      "postcode": "02218",
      "city": "Львів",
      "location_id": 14
    },
    {
      "id": 93,
      "line1": "вул. Фіалкова 8",
      "line2": "Fialkova Street, 8",
      "postcode": "02218",
      "city": "Львів",
      "location_id": 14
    },
    {
      "id": 94,
      "line1": "вул. Яблунева 67",
      "line2": "Yabluneva Street, 67",
      "postcode": "02218",
      "city": "Львів",
      "location_id": 14
    },
    {
      "id": 95,
      "line1": "вул. Зелена 24",
      "line2": "Zelena Street, 24",
      "postcode": "02218",
      "city": "Львів",
      "location_id": 14
    },
    {
      "id": 96,
      "line1": "вул. Героїв Крут 17",
      "line2": "Heroiv Krut Street, 17",
      "postcode": "02218",
      "city": "Львів",
      "location_id": 14
    },
    {
      "id": 97,
      "line1": "вул. Райдужна 7",
      "line2": "Raiduzhna Street, 7",
      "postcode": "02218",
      "city": "Київ",
      "location_id": 1
    },
    {
      "id": 98,
      "line1": "вул. Вершигори 3",
      "line2": "Vershyhory Street, 3",
      "postcode": "02218",
      "city": "Київ",
      "location_id": 1
    },
    {
      "id": 99,
      "line1": "вул. Артема 10",
      "line2": "Artema Street, 10",
      "postcode": "02218",
      "city": "Київ",
      "location_id": 1
    },
    {
      "id": 100,
      "line1": "вул. Бандери 6",
      "line2": "Bandery Street, 6",
      "postcode": "02218",
      "city": "Київ",
      "location_id": 1
    },
    {
      "id": 101,
      "line1": "вул. Констянтина Данькевича 10",
      "line2": "Konstyantyna Dankevycha Street, 10",
      "postcode": "02218",
      "city": "Київ",
      "location_id": 1
    },
    {
      "id": 102,
      "line1": "вул. Б. Хмельницького 2",
      "line2": "Bohdana Khmelnytskoho Street, 2",
      "postcode": "02218",
      "city": "Київська область, м. Глеваха",
      "location_id": 2
    },
    {
      "id": 103,
      "line1": "вул. Урицьго 20",
      "line2": "Urytskoho Street, 20",
      "postcode": "02218",
      "city": "Київ",
      "location_id": 1
    },
    {
      "id": 104,
      "line1": "вул. Бандери 70",
      "line2": "Bandery Street, 70",
      "postcode": "02218",
      "city": "Київ",
      "location_id": 1
    },
    {
      "id": 105,
      "line1": "вул. Романа Ратушного 15",
      "line2": "Romana Ratushnoho Street, 15",
      "postcode": "02218",
      "city": "Київ",
      "location_id": 1
    },
    {
      "id": 106,
      "line1": "вул. Ярова 30",
      "line2": "Yarova Street, 30",
      "postcode": "02218",
      "city": "Київ",
      "location_id": 1
    },
    {
      "id": 107,
      "line1": "бул. Перова 70",
      "line2": "Perova Boulevard, 70",
      "postcode": "02218",
      "city": "Київ",
      "location_id": 1
    },
    {
      "id": 108,
      "line1": "вул. Ореста Левицького 8",
      "line2": "Oresta Levytskoho Street, 8",
      "postcode": "02218",
      "city": "Київ",
      "location_id": 1
    },
    {
      "id": 109,
      "line1": "вул. Аніщенка 44",
      "line2": "Anishchenka Street, 44",
      "postcode": "02218",
      "city": "Київ",
      "location_id": 1
    },
    {
      "id": 110,
      "line1": "вул. Ватутіна 100",
      "line2": "Vatutina Street, 100",
      "postcode": "02218",
      "city": "Київ",
      "location_id": 1
    },
    {
      "id": 111,
      "line1": "Червоний провулок 5",
      "line2": "Chervonyi Lane, 5",
      "postcode": "02218",
      "city": "Київ",
      "location_id": 1
    },
    {
      "id": 112,
      "line1": "вул.Балукова 7",
      "line2": "Balukova Street, 7",
      "postcode": "08136",
      "city": "Київська область, м.Крюківщина",
      "location_id": 2
    },
    {
      "id": 113,
      "line1": "вул. Андріївська 10",
      "line2": "Andriyivska Street, 10",
      "postcode": "08136",
      "city": "Київська область, м.Крюківщина",
      "location_id": 2
    },
    {
      "id": 114,
      "line1": "вул. Дарницька 7",
      "line2": "Darnytska Street, 7",
      "postcode": "02218",
      "city": "Київ",
      "location_id": 1
    },
    {
      "id": 115,
      "line1": "вул. Гоголівська 10",
      "line2": "Hoholivska Street, 10",
      "postcode": "10014",
      "city": "Житомир",
      "location_id": 7
    },
    {
      "id": 116,
      "line1": "вул. Польова 11",
      "line2": "Polova Street, 11",
      "postcode": "03049",
      "city": "Київ",
      "location_id": 1
    },
    {
      "id": 117,
      "line1": "вул. Шевченка 16",
      "line2": "Shevchenka Street, 16",
      "postcode": "79000",
      "city": "Львів",
      "location_id": 14
    },
    {
      "id": 118,
      "line1": "вул. Зелена 24",
      "line2": "Zelena Street, 24",
      "postcode": "79000",
      "city": "Львів",
      "location_id": 14
    },
    {
      "id": 119,
      "line1": "бул. Перова 70",
      "line2": "Perova Boulevard, 70",
      "postcode": "02125",
      "city": "Київ",
      "location_id": 1
    },
    {
      "id": 120,
      "line1": "вул. Іртишська 1",
      "line2": "Irtyshska Street, 1",
      "postcode": "02099",
      "city": "Київ",
      "location_id": 1
    },
    {
      "id": 121,
      "line1": "вул. Стрілецька 14",
      "line2": "Striletska Street, 14",
      "postcode": "79000",
      "city": "Львів",
      "location_id": 14
    },
    {
      "id": 122,
      "line1": "вул. Проліскова 22",
      "line2": "Proliskova Street, 22",
      "postcode": "79000",
      "city": "Львів",
      "location_id": 14
    },
    {
      "id": 123,
      "line1": "вул. Урицьго 20",
      "line2": "Urytskoho Street, 20",
      "postcode": "03035",
      "city": "Київ",
      "location_id": 1
    },
    {
      "id": 124,
      "line1": "вул. Весняна 14",
      "line2": "Vesniana Street, 14",
      "postcode": "08130",
      "city": "Київська область, м.Юрівка",
      "location_id": 2
    },
    {
      "id": 125,
      "line1": "вул. Головна 4",
      "line2": "Holovna Street, 4",
      "postcode": "08132",
      "city": "Київська область, м.Вишневе",
      "location_id": 2
    },
    {
      "id": 126,
      "line1": "вул. Авіаційна 15",
      "line2": "Aviatsiyna Street, 15",
      "postcode": "02218",
      "city": "Чернівці",
      "location_id": 25
    },
    {
      "id": 127,
      "line1": "вул. Староміська 5",
      "line2": "Staromiska Street, 5",
      "postcode": "02218",
      "city": "Хмельницький",
      "location_id": 23
    },
    {
      "id": 128,
      "line1": "вул. Банилівська 9",
      "line2": "Banylivska Street, 9",
      "postcode": "02218",
      "city": "Чернівці",
      "location_id": 25
    },
    {
      "id": 129,
      "line1": "вул. Вербова 65",
      "line2": "Verbova Street, 65",
      "postcode": "02218",
      "city": "Чернівці",
      "location_id": 25
    },
    {
      "id": 130,
      "line1": "вул. Стуса 3",
      "line2": "Stusa Street, 3",
      "postcode": "02218",
      "city": "Хмельницький",
      "location_id": 23
    },
    {
      "id": 131,
      "line1": "вул. Соборна 12",
      "line2": "Soborna Street, 12",
      "postcode": "02218",
      "city": "Хмельницький",
      "location_id": 23
    },
    {
      "id": 132,
      "line1": "вул. Молодіжна 11",
      "line2": "Molodizhna Street, 11",
      "postcode": "02218",
      "city": "Хмельницький",
      "location_id": 23
    },
    {
      "id": 133,
      "line1": "вул. Глібова 8",
      "line2": "Hlibova Street, 8",
      "postcode": "02218",
      "city": "Хмельницький",
      "location_id": 23
    },
    {
      "id": 134,
      "line1": "вул. Джерельна 12",
      "line2": "Dzherelna Street, 12",
      "postcode": "02218",
      "city": "Чернівці",
      "location_id": 25
    },
    {
      "id": 135,
      "line1": "вул. Данила Галицького 4",
      "line2": "Danyla Halytskoho Street, 4",
      "postcode": "02218",
      "city": "Хмельницький",
      "location_id": 23
    },
    {
      "id": 136,
      "line1": "вул. Бандери 70",
      "line2": "Bandery Street, 70",
      "postcode": "02218",
      "city": "Київ",
      "location_id": 1
    },
    {
      "id": 137,
      "line1": "вул. Січових Стрільців 3",
      "line2": "Sichovykh Striltsiv Street, 3",
      "postcode": "02218",
      "city": "Київ",
      "location_id": 1
    },
    {
      "id": 138,
      "line1": "вул. Романа Ратушного 15",
      "line2": "Romana Ratushnoho Street, 15",
      "postcode": "02218",
      "city": "Київ",
      "location_id": 1
    },
    {
      "id": 139,
      "line1": "вул. Сергія Котенка 27",
      "line2": "Serhiya Kotenka Street, 27",
      "postcode": "02218",
      "city": "Київ",
      "location_id": 1
    },
    {
      "id": 140,
      "line1": "вул. Урицьго 20",
      "line2": "Urytskoho Street, 20",
      "postcode": "03035",
      "city": "Київ",
      "location_id": 1
    },
    {
      "id": 141,
      "line1": "вул. Січових Стрільців 3",
      "line2": "Sichovykh Striltsiv Street, 3",
      "postcode": "02218",
      "city": "Київ",
      "location_id": 1
    },
    {
      "id": 142,
      "line1": "вул. Авіаційна 15",
      "line2": "Aviatsiyna Street, 15",
      "postcode": "02218",
      "city": "Чернівці",
      "location_id": 25
    },
    {
      "id": 143,
      "line1": "вул. Висока 2",
      "line2": "Vysoka Street, 2",
      "postcode": "02218",
      "city": "Львів",
      "location_id": 14
    },
    {
      "id": 144,
      "line1": "вул. Азовська 7",
      "line2": "Azovska Street, 7",
      "postcode": "02218",
      "city": "Львів",
      "location_id": 14
    },
    {
      "id": 145,
      "line1": "вул. Банилівська 9",
      "line2": "Banylivska Street, 9",
      "postcode": "02218",
      "city": "Чернівці",
      "location_id": 25
    },
    {
      "id": 146,
      "line1": "вул. Романа Ратушного 15",
      "line2": "Romana Ratushnoho Street, 15",
      "postcode": "02218",
      "city": "Київ",
      "location_id": 1
    },
    {
      "id": 147,
      "line1": "вул. Зелена 24",
      "line2": "Zelena Street, 24",
      "postcode": "79000",
      "city": "Львів",
      "location_id": 14
    },
    {
      "id": 148,
      "line1": "вул. Академіка Вавілова 14",
      "line2": "Akademika Vavilova Street, 14",
      "postcode": "02218",
      "city": "Одеса",
      "location_id": 16
    },
    {
      "id": 149,
      "line1": "вул. Вишнева 23",
      "line2": "Vyshneva Street, 23",
      "postcode": "02218",
      "city": "Харків",
      "location_id": 21
    },
    {
      "id": 150,
      "line1": "вул. Академіка Вавілова 14",
      "line2": "Akademika Vavilova Street, 14",
      "postcode": "02218",
      "city": "Одеса",
      "location_id": 16
    },
    {
      "id": 151,
      "line1": "вул. Буковецького 5",
      "line2": "Bukovetskoho Street, 5",
      "postcode": "02218",
      "city": "Одеса",
      "location_id": 16
    },
    {
      "id": 152,
      "line1": "вул. Софіївська 10",
      "line2": "Sofiivska Street, 10",
      "postcode": "02218",
      "city": "Одеса",
      "location_id": 16
    },
    {
      "id": 153,
      "line1": "вул. Леонтовича 43",
      "line2": "Leontovycha Street, 43",
      "postcode": "02218",
      "city": "Одеса",
      "location_id": 16
    },
    {
      "id": 154,
      "line1": "вул. Шота Руставелі 8",
      "line2": "Shota Rustaveli Street, 8",
      "postcode": "02218",
      "city": "Одеса",
      "location_id": 16
    },
    {
      "id": 155,
      "line1": "вул. Шота Руставелі 8",
      "line2": "Shota Rustaveli Street, 8",
      "postcode": "02218",
      "city": "Одеса",
      "location_id": 16
    },
    {
      "id": 156,
      "line1": "вул. Шота Руставелі 8",
      "line2": "Shota Rustaveli Street, 8",
      "postcode": "02218",
      "city": "Одеса",
      "location_id": 16
    },
    {
      "id": 157,
      "line1": "вул. Шота Руставелі 8",
      "line2": "Shota Rustaveli Street, 8",
      "postcode": "02218",
      "city": "Одеса",
      "location_id": 16
    },
    {
      "id": 158,
      "line1": "вул. Шота Руставелі 8",
      "line2": "Shota Rustaveli Street, 8",
      "postcode": "02218",
      "city": "Одеса",
      "location_id": 16
    },
    {
      "id": 159,
      "line1": "вул. Сергія Котенка 27",
      "line2": "Serhiya Kotenka Street, 27",
      "postcode": "02218",
      "city": "Київ",
      "location_id": 1
    },
    {
      "id": 160,
      "line1": "вул. Бандери 70",
      "line2": "Bandery Street, 70",
      "postcode": "02218",
      "city": "Київ",
      "location_id": 1
    },
    {
      "id": 161,
      "line1": "вул. Урицьго 20",
      "line2": "Urytskoho Street, 20",
      "postcode": "03035",
      "city": "Київ",
      "location_id": 1
    },
    {
      "id": 162,
      "line1": "вул. Січових Стрільців 3",
      "line2": "Sichovykh Striltsiv Street, 3",
      "postcode": "02218",
      "city": "Київ",
      "location_id": 1
    },
    {
      "id": 163,
      "line1": "вул. Ярова 30",
      "line2": "Yarova Street, 30",
      "postcode": "02218",
      "city": "Київ",
      "location_id": 1
    },
    {
      "id": 164,
      "line1": "вул. Дарницька 7",
      "line2": "Darnytska Street, 7",
      "postcode": "02218",
      "city": "Київ",
      "location_id": 1
    },
    {
      "id": 165,
      "line1": "вул. Бандери 70",
      "line2": "Bandery Street, 70",
      "postcode": "02218",
      "city": "Київ",
      "location_id": 1
    },
    {
      "id": 166,
      "line1": "вул. Урицьго 20",
      "line2": "Urytskoho Street, 20",
      "postcode": "03035",
      "city": "Київ",
      "location_id": 1
    },
    {
      "id": 167,
      "line1": "вул. Б.Хмельницького 2",
      "line2": "Bohdana Khmelnytskoho Street, 2",
      "postcode": "03035",
      "city": "Київська область, м.Глеваха",
      "location_id": 2
    },
    {
      "id": 168,
      "line1": "вул. Авіаційна 13",
      "line2": "Aviatsiyna Street, 13",
      "postcode": "02218",
      "city": "Київська область, м.Глеваха",
      "location_id": 2
    },
    {
      "id": 169,
      "line1": "вул. Кошового 9",
      "line2": "Koshovoho Street, 9",
      "postcode": "02218",
      "city": "Київська область, м.Глеваха",
      "location_id": 2
    },
    {
      "id": 170,
      "line1": "вул. Польова 67",
      "line2": "Polova Street, 67",
      "postcode": "02218",
      "city": "Київ",
      "location_id": 1
    },
    {
      "id": 171,
      "line1": "вул. Кільцева 10",
      "line2": "Kiltseva Street, 10",
      "postcode": "02218",
      "city": "Київ",
      "location_id": 1
    },
    {
      "id": 172,
      "line1": "вул. Осипова 90",
      "line2": "Osypova Street, 90",
      "postcode": "02218",
      "city": "Одеса",
      "location_id": 16
    },
    {
      "id": 173,
      "line1": "вул. Осипова 90",
      "line2": "Osypova Street, 90",
      "postcode": "02218",
      "city": "Одеса",
      "location_id": 16
    },
    {
      "id": 174,
      "line1": "вул. Осипова 90",
      "line2": "Osypova Street, 90",
      "postcode": "02218",
      "city": "Одеса",
      "location_id": 16
    },
    {
      "id": 175,
      "line1": "вул. Юрія Олеші 7",
      "line2": "Yuriia Oleshi Street, 7",
      "postcode": "02218",
      "city": "Одеса",
      "location_id": 16
    },
    {
      "id": 176,
      "line1": "вул. Юрія Олеші 7",
      "line2": "Yuriia Oleshi Street, 7",
      "postcode": "02218",
      "city": "Одеса",
      "location_id": 16
    },
    {
      "id": 177,
      "line1": "вул. Юрія Олеші 7",
      "line2": "Yuriia Oleshi Street, 7",
      "postcode": "02218",
      "city": "Одеса",
      "location_id": 16
    },
    {
      "id": 178,
      "line1": "вул. Юрія Олеші 7",
      "line2": "Yuriia Oleshi Street, 7",
      "postcode": "02218",
      "city": "Одеса",
      "location_id": 16
    },
    {
      "id": 179,
      "line1": "вул. Осипова 90",
      "line2": "Osypova Street, 90",
      "postcode": "02218",
      "city": "Одеса",
      "location_id": 16
    },
    {
      "id": 180,
      "line1": "вул. Осипова 90",
      "line2": "Osypova Street, 90",
      "postcode": "02218",
      "city": "Одеса",
      "location_id": 16
    },
    {
      "id": 181,
      "line1": "вул. Осипова 90",
      "line2": "Osypova Street, 90",
      "postcode": "02218",
      "city": "Одеса",
      "location_id": 16
    },
    {
      "id": 182,
      "line1": "вул. Пастера 10",
      "line2": "Pastera Street, 10",
      "postcode": "02218",
      "city": "Одеса",
      "location_id": 16
    },
    {
      "id": 183,
      "line1": "вул. Гоголя 43",
      "line2": "Hoholia Street, 43",
      "postcode": "02218",
      "city": "Одеса",
      "location_id": 16
    },
    {
      "id": 184,
      "line1": "вул. Асташкіна 11",
      "line2": "Astashkina Street, 11",
      "postcode": "02218",
      "city": "Одеса",
      "location_id": 16
    },
    {
      "id": 185,
      "line1": "вул. Юрія Олеші 32",
      "line2": "Yuriia Oleshi Street, 32",
      "postcode": "02218",
      "city": "Одеса",
      "location_id": 16
    },
    {
      "id": 186,
      "line1": "вул. Коблевська 67",
      "line2": "Kobleva Street, 67",
      "postcode": "02218",
      "city": "Одеса",
      "location_id": 16
    },
    {
      "id": 187,
      "line1": "вул. Героїв Крут 17",
      "line2": "Heroiv Krut Street, 17",
      "postcode": "02218",
      "city": "Львів",
      "location_id": 14
    },
    {
      "id": 188,
      "line1": "вул. Яблунева 67",
      "line2": "Yabluneva Street, 67",
      "postcode": "02218",
      "city": "Львів",
      "location_id": 14
    },
    {
      "id": 189,
      "line1": "вул. Шелестівка 8",
      "line2": "Shelestivka Street, 8",
      "postcode": "02218",
      "city": "Київська область, м. Бориспіль",
      "location_id": 2
    },
    {
      "id": 190,
      "line1": "вул. Б.Хмельницького 2",
      "line2": "Bohdana Khmelnytskoho Street, 2",
      "postcode": "02218",
      "city": "Київська область, м. Глеваха",
      "location_id": 2
    },
    {
      "id": 191,
      "line1": "вул. Авіаційна 13",
      "line2": "Aviatsiyna Street, 13",
      "postcode": "02218",
      "city": "Київська область, м. Глеваха",
      "location_id": 2
    },
    {
      "id": 192,
      "line1": "вул. Кошового 9",
      "line2": "Koshovoho Street, 9",
      "postcode": "02218",
      "city": "Київська область, м. Глеваха",
      "location_id": 2
    },
    {
      "id": 193,
      "line1": "вул. Паркова 4",
      "line2": "Parkova Street, 4",
      "postcode": "02218",
      "city": "Київська область, м. Вишневе",
      "location_id": 2
    },

    {
      "id": 194,
      "line1": "вул. Шевченка 16",
      "line2": "Shevchenka Street, 16",
      "postcode": "02218",
      "city": "Львів",
      "location_id": 14
    },
    {
      "id": 195,
      "line1": "вул. Шахова 3",
      "line2": "Shakhova Street, 3",
      "postcode": "02218",
      "city": "Львів",
      "location_id": 14
    },
    {
      "id": 196,
      "line1": "вул. Фіалкова 8",
      "line2": "Fialkova Street, 8",
      "postcode": "02218",
      "city": "Львів",
      "location_id": 14
    },
    {
      "id": 197,
      "line1": "вул. Зелена 24",
      "line2": "Zelena Street, 24",
      "postcode": "02218",
      "city": "Львів",
      "location_id": 14
    },
    {
      "id": 198,
      "line1": "вул. Азовська 7",
      "line2": "Azovska Street, 7",
      "postcode": "02218",
      "city": "Львів",
      "location_id": 14
    },
    {
      "id": 199,
      "line1": "вул. Вузька 10",
      "line2": "Vuzka Street, 10",
      "postcode": "02218",
      "city": "Львів",
      "location_id": 14
    },
    {
      "id": 200,
      "line1": "вул. Бойківська 3",
      "line2": "Boikivska Street, 3",
      "postcode": "02218",
      "city": "Львів",
      "location_id": 14
    },
    {
      "id": 201,
      "line1": "вул. Лемківська 10",
      "line2": "Lemkivska Street, 10",
      "postcode": "02218",
      "city": "Львів",
      "location_id": 14
    },
    {
      "id": 202,
      "line1": "вул. Вербова 8",
      "line2": "Verbova Street, 8",
      "postcode": "02218",
      "city": "Львів",
      "location_id": 14
    },
    {
      "id": 203,
      "line1": "вул. Вербова 8",
      "line2": "Verbova Street, 8",
      "postcode": "79000",
      "city": "Львів",
      "location_id": 14
    },
    {
      "id": 204,
      "line1": "вул.Травнева 22",
      "line2": "Travneva Street, 22",
      "postcode": "02000",
      "city": "Київ",
      "location_id": 1
    },
    {
      "id": 205,
      "line1": "пр. Щербакова 7",
      "line2": "Shcherbakova Avenue, 7",
      "postcode": "02000",
      "city": "Київ",
      "location_id": 1
    },
    {
      "id": 206,
      "line1": "вул. Шевченка 16",
      "line2": "Shevchenka Street, 16",
      "postcode": "79000",
      "city": "Львів",
      "location_id": 14
    },
    {
      "id": 207,
      "line1": "вул.Фіалкова 8",
      "line2": "Fialkova Street, 8",
      "postcode": "79000",
      "city": "Львів",
      "location_id": 14
    },
    {
      "id": 208,
      "line1": "вул. Сергія Котенка 27",
      "line2": "Serhiya Kotenka Street, 27",
      "postcode": "02000",
      "city": "Київ",
      "location_id": 1
    },
    {
      "id": 209,
      "line1": "вул. Авіаційна 15",
      "line2": "Aviatsiyna Street, 15",
      "postcode": "58000",
      "city": "Чернівці",
      "location_id": 25
    },
    {
      "id": 210,
      "line1": "вул. Зої Космодем’янської 8",
      "line2": "St. Zoi Kosmodemyanskoyi, 8",
      "postcode": "02218",
      "city": "Київ",
      "location_id": 1
    },
    {
      "id": 211,
      "line1": "вул. Межова 4",
      "line2": "St. Mezhova, 4",
      "postcode": "02218",
      "city": "Київ",
      "location_id": 1
    },
    {
      "id": 212,
      "line1": "вул. Олександра Даля 10",
      "line2": "St. Oleksandra Dalya, 10",
      "postcode": "02218",
      "city": "Київ",
      "location_id": 1
    },
    {
      "id": 213,
      "line1": "вул. Травнева 22",
      "line2": "St. Travneva, 22",
      "postcode": "02218",
      "city": "Київ",
      "location_id": 1
    },
    {
      "id": 214,
      "line1": "вул. Урицького 20",
      "line2": "St. Urytskoho, 20",
      "postcode": "02218",
      "city": "Київ",
      "location_id": 1
    },
    {
      "id": 215,
      "line1": "вул. Січових Стрільців 3",
      "line2": "St. Sichovykh Striltsiv, 3",
      "postcode": "02218",
      "city": "Київ",
      "location_id": 1
    },
    {
      "id": 216,
      "line1": "вул. Ярова 30",
      "line2": "St. Yarova, 30",
      "postcode": "02218",
      "city": "Київ",
      "location_id": 1
    },
    {
      "id": 217,
      "line1": "вул. Бандери 70",
      "line2": "St. Bandery, 70",
      "postcode": "02218",
      "city": "Київ",
      "location_id": 1
    },
    {
      "id": 218,
      "line1": "вул. Польова 2",
      "line2": "St. Polova, 2",
      "postcode": "02218",
      "city": "Київ",
      "location_id": 1
    },
    {
      "id": 219,
      "line1": "вул. Олександра Даля 10",
      "line2": "St. Oleksandra Dalya, 10",
      "postcode": "02218",
      "city": "Київ",
      "location_id": 1
    },
    {
      "id": 220,
      "line1": "вул. Борщагівська 101",
      "line2": "St. Borshchahivska, 101",
      "postcode": "02218",
      "city": "Київ",
      "location_id": 1
    },
    {
      "id": 221,
      "line1": "вул. Лемківська 10",
      "line2": "St. Lemkivska, 10",
      "postcode": "02218",
      "city": "Львів",
      "location_id": 14
    },
    {
      "id": 222,
      "line1": "вул. Грушева 42",
      "line2": "St. Hrusheva, 42",
      "postcode": "02218",
      "city": "Львів",
      "location_id": 14
    },
    {
      "id": 223,
      "line1": "вул. Досвітня 3",
      "line2": "St. Dosvitnya, 3",
      "postcode": "02218",
      "city": "Львів",
      "location_id": 14
    },
    {
      "id": 224,
      "line1": "вул. Азовська 7",
      "line2": "St. Azovska, 7",
      "postcode": "02218",
      "city": "Львів",
      "location_id": 14
    },
    {
      "id": 225,
      "line1": "вул. Шахова 3",
      "line2": "St. Shakhova, 3",
      "postcode": "02218",
      "city": "Львів",
      "location_id": 14
    },
    {
      "id": 226,
      "line1": "вул. Героїв Крут 17",
      "line2": "St. Heroiv Krut, 17",
      "postcode": "02218",
      "city": "Львів",
      "location_id": 14
    },
    {
      "id": 227,
      "line1": "вул. Фіалкова 8",
      "line2": "St. Fialkova, 8",
      "postcode": "02218",
      "city": "Львів",
      "location_id": 14
    },
    {
      "id": 228,
      "line1": "вул. Багринова 34",
      "line2": "St. Bahrynova, 34",
      "postcode": "02218",
      "city": "Київ",
      "location_id": 1
    },
    {
      "id": 229,
      "line1": "вул. Багринова 34",
      "line2": "St. Bahrynova, 34",
      "postcode": "02218",
      "city": "Київ",
      "location_id": 1
    },
    {
      "id": 230,
      "line1": "вул. Багринова 34",
      "line2": "St. Bahrynova, 34",
      "postcode": "02218",
      "city": "Київ",
      "location_id": 1
    },
    {
      "id": 231,
      "line1": "вул. Багринова 34",
      "line2": "St. Bahrynova, 34",
      "postcode": "02218",
      "city": "Київ",
      "location_id": 1
    },
    {
      "id": 232,
      "line1": "вул. Академіка Вавілова 14",
      "line2": "St. Akademika Vavilova, 14",
      "postcode": "02218",
      "city": "Одеса",
      "location_id": 16
    },
    {
      "id": 233,
      "line1": "вул. Буковецького 5",
      "line2": "St. Bukovetskoho, 5",
      "postcode": "02218",
      "city": "Одеса",
      "location_id": 16
    },
    {
      "id": 234,
      "line1": "вул. Софіївська 10",
      "line2": "St. Sofiivska, 10",
      "postcode": "02218",
      "city": "Одеса",
      "location_id": 16
    },
    {
      "id": 235,
      "line1": "вул. Леонтовича 43",
      "line2": "St. Leontovycha, 43",
      "postcode": "02218",
      "city": "Одеса",
      "location_id": 16
    },
    {
      "id": 236,
      "line1": "вул. Качинського 90",
      "line2": "St. Kachynskoho, 90",
      "postcode": "02218",
      "city": "Одеса",
      "location_id": 16
    },
    {
      "id": 237,
      "line1": "вул. Коблевська 67",
      "line2": "St. Koblevska, 67",
      "postcode": "02218",
      "city": "Одеса",
      "location_id": 16
    },
    {
      "id": 238,
      "line1": "вул. Юрія Олеші 32",
      "line2": "St. Yuriya Oleshi, 32",
      "postcode": "02218",
      "city": "Одеса",
      "location_id": 16
    },
    {
      "id": 239,
      "line1": "пр. Сабанський 10",
      "line2": "Sabanskyi Ave, 10",
      "postcode": "02218",
      "city": "Одеса",
      "location_id": 16
    },
    {
      "id": 240,
      "line1": "вул. Юхима Геллера 4",
      "line2": "St. Yukhima Heller, 4",
      "postcode": "02218",
      "city": "Одеса",
      "location_id": 16
    },
    {
      "id": 241,
      "line1": "вул. Чайковського 7",
      "line2": "St. Chaikovskoho, 7",
      "postcode": "02218",
      "city": "Одеса",
      "location_id": 16
    },
    {
      "id": 242,
      "line1": "вул. Пироговська 34",
      "line2": "St. Pyrohivska, 34",
      "postcode": "02218",
      "city": "Одеса",
      "location_id": 16
    },
    {
      "id": 243,
      "line1": "вул. Шевченка 16",
      "line2": "St. Shevchenka, 16",
      "postcode": "02218",
      "city": "Львів",
      "location_id": 14
    },
    {
      "id": 244,
      "line1": "вул. Азовська 7",
      "line2": "St. Azovska, 7",
      "postcode": "02218",
      "city": "Львів",
      "location_id": 14
    },
    {
      "id": 245,
      "line1": "вул. Шахова 3",
      "line2": "St. Shakhova, 3",
      "postcode": "02218",
      "city": "Львів",
      "location_id": 14
    },
    {
      "id": 246,
      "line1": "вул. Фіалкова 8",
      "line2": "St. Fialkova, 8",
      "postcode": "02218",
      "city": "Львів",
      "location_id": 14
    },
    {
      "id": 247,
      "line1": "вул. Яблунева 67",
      "line2": "St. Yabluneva, 67",
      "postcode": "02218",
      "city": "Львів",
      "location_id": 14
    },
    {
      "id": 248,
      "line1": "вул. Зелена 24",
      "line2": "St. Zelena, 24",
      "postcode": "02218",
      "city": "Львів",
      "location_id": 14
    },
    {
      "id": 249,
      "line1": "вул. Героїв Крут 17",
      "line2": "St. Heroiv Krut, 17",
      "postcode": "02218",
      "city": "Львів",
      "location_id": 14
    },
    {
      "id": 250,
      "line1": "вул. Грушевського 35",
      "line2": "St. Hrushevskoho, 35",
      "postcode": "02218",
      "city": "Львів",
      "location_id": 14
    },
    {
      "id": 251,
      "line1": "вул. В.Стуса 10",
      "line2": "St. V.Stusa, 10",
      "postcode": "02218",
      "city": "Львів",
      "location_id": 14
    },
    {
      "id": 252,
      "line1": "вул. Проліскова 22",
      "line2": "St. Proliskova, 22",
      "postcode": "02218",
      "city": "Львів",
      "location_id": 14
    },

    {
      "id": 253,
      "line1": "вул. Травнева 14",
      "line2": "St. Travneva, 14",
      "postcode": "02218",
      "city": "Київська область, м.Ірпінь",
      "location_id": 2
    },
    {
      "id": 254,
      "line1": "вул. Шухевича 10",
      "line2": "St. Shukhevycha, 10",
      "postcode": "02218",
      "city": "Київська область, м.Буча",
      "location_id": 2
    },
    {
      "id": 255,
      "line1": "вул. Хрещатик 8",
      "line2": "St. Khreshchatyk, 8",
      "postcode": "02218",
      "city": "Київська область, м.Вишневе",
      "location_id": 2
    },
    {
      "id": 256,
      "line1": "вул. Лісна 22",
      "line2": "St. Lisna, 22",
      "postcode": "02218",
      "city": "Київська область, м.Забір'я",
      "location_id": 2
    },
    {
      "id": 257,
      "line1": "вул. Зелена 11",
      "line2": "St. Zelena, 11",
      "postcode": "02218",
      "city": "Київська область, м.Васильків",
      "location_id": 2
    },
    {
      "id": 258,
      "line1": "вул. Київська 14",
      "line2": "St. Kyivska, 14",
      "postcode": "02218",
      "city": "Київська область, м.Глеваха",
      "location_id": 2
    },
    {
      "id": 259,
      "line1": "вул. Лікарняна 1",
      "line2": "St. Likarnyana, 1",
      "postcode": "02218",
      "city": "Києво-Святошинський район, м.Боярка",
      "location_id": 2
    },
    {
      "id": 260,
      "line1": "Виноградар",
      "line2": "Vynohradar",
      "postcode": "02218",
      "city": "Київ",
      "location_id": 1
    },
    {
      "id": 261,
      "line1": "вул. Піщана 25",
      "line2": "St. Pishchana, 25",
      "postcode": "02218",
      "city": "Київська область, м. Пуща-Водиця",
      "location_id": 2
    },
    {
      "id": 262,
      "line1": "вул. Хрещатик 32",
      "line2": "St. Khreshchatyk, 32",
      "postcode": "02218",
      "city": "Київська область, м. Бородянка",
      "location_id": 2
    },
    {
      "id": 263,
      "line1": "вул. Молодіжна 14",
      "line2": "St. Molodizhna, 14",
      "postcode": "02218",
      "city": "Київська область, Києво-Святошинський район, м.Боярка",
      "location_id": 2
    },
    {
      "id": 264,
      "line1": "вул. Богданівська 17",
      "line2": "St. Bohdanivska, 17",
      "postcode": "02218",
      "city": "Львів",
      "location_id": 14
    },
    {
      "id": 265,
      "line1": "вул. Виробнича 22",
      "line2": "St. Vyrobnycha, 22",
      "postcode": "02218",
      "city": "Львів",
      "location_id": 14
    },
    {
      "id": 266,
      "line1": "вул. В.Стуса 10",
      "line2": "St. V.Stusa, 10",
      "postcode": "02218",
      "city": "Львів",
      "location_id": 14
    },
    {
      "id": 267,
      "line1": "вул. Вільхова 5",
      "line2": "St. Vilkhova, 5",
      "postcode": "02218",
      "city": "Львів",
      "location_id": 14
    },
    {
      "id": 268,
      "line1": "м.Житомир, вул. Степана Бандери 60",
      "line2": "Zhytomyr, St. Stepana Bandery, 60",
      "postcode": "02218",
      "city": "Київська область",
      "location_id": 2
    },
    {
      "id": 269,
      "line1": "м.Житомир, вул. Троянівська 5",
      "line2": "Zhytomyr, St. Troyanivska, 5",
      "postcode": "02218",
      "city": "Київська область",
      "location_id": 2
    },
    {
      "id": 270,
      "line1": "м.Житомир, вул. Чорновола 11",
      "line2": "Zhytomyr, St. Chornovola, 11",
      "postcode": "02218",
      "city": "Київська область",
      "location_id": 2
    },
    {
      "id": 271,
      "line1": "м.Житомир, вул. Шевченка 7",
      "line2": "Zhytomyr, St. Shevchenka, 7",
      "postcode": "02218",
      "city": "Київська область",
      "location_id": 2
    },
    {
      "id": 272,
      "line1": "м.Житомир, вул. Івана Богуна 27",
      "line2": "Zhytomyr, St. Ivana Bohuna, 27",
      "postcode": "02218",
      "city": "Київська область",
      "location_id": 2
    },
    {
      "id": 273,
      "line1": "вул. Чайковського 7",
      "line2": "St. Chaikovskoho, 7",
      "postcode": "02218",
      "city": "Одеса",
      "location_id": 16
    },
    {
      "id": 274,
      "line1": "вул. Юхима Геллера 4",
      "line2": "St. Yukhima Heller, 4",
      "postcode": "02218",
      "city": "Одеса",
      "location_id": 16
    },
    {
      "id": 275,
      "line1": "вул. Леонтовича 43",
      "line2": "St. Leontovycha, 43",
      "postcode": "02218",
      "city": "Одеса",
      "location_id": 16
    },
    {
      "id": 276,
      "line1": "вул. Качинського 90",
      "line2": "St. Kachynskoho, 90",
      "postcode": "02218",
      "city": "Одеса",
      "location_id": 16
    },
    {
      "id": 277,
      "line1": "вул. Буковецького 5",
      "line2": "St. Bukovetskoho, 5",
      "postcode": "02218",
      "city": "Одеса",
      "location_id": 16
    },
    {
      "id": 278,
      "line1": "вул. Осипова 90",
      "line2": "St. Osypova, 90",
      "postcode": "02218",
      "city": "Одеса",
      "location_id": 16
    },
    {
      "id": 279,
      "line1": "вул. Чайковського 7",
      "line2": "St. Chaikovskoho, 7",
      "postcode": "02218",
      "city": "Одеса",
      "location_id": 16
    },
    {
      "id": 280,
      "line1": "вул. Головна 4",
      "line2": "St. Holovna, 4",
      "postcode": "02218",
      "city": "Київська область, м. Вишневе",
      "location_id": 2
    },
    {
      "id": 281,
      "line1": "вул. Весняна 14",
      "line2": "St. Vesnyana, 14",
      "postcode": "02218",
      "city": "Київська область, м. Юрівка",
      "location_id": 2
    },
    {
      "id": 282,
      "line1": "Червоний провулок 5",
      "line2": "Chervonyi Lane, 5",
      "postcode": "02218",
      "city": "Київ",
      "location_id": 1
    },
    {
      "id": 283,
      "line1": "вул. Якіра 23",
      "line2": "St. Yakira, 23",
      "postcode": "02218",
      "city": "Київ",
      "location_id": 1
    },
    {
      "id": 284,
      "line1": "вул. Енгельса 10",
      "line2": "St. Engelsa, 10",
      "postcode": "02218",
      "city": "Київ",
      "location_id": 1
    },
    {
      "id": 285,
      "line1": "вул. Жданова 9",
      "line2": "St. Zhdanova, 9",
      "postcode": "02218",
      "city": "Київ",
      "location_id": 1
    },
    {
      "id": 286,
      "line1": "вул. Ватутіна 100",
      "line2": "St. Vatutina, 100",
      "postcode": "02218",
      "city": "Київ",
      "location_id": 1
    },
    {
      "id": 287,
      "line1": "вул. Аніщенка 44",
      "line2": "St. Anishchenka, 44",
      "postcode": "02218",
      "city": "Київ",
      "location_id": 1
    },
    {
      "id": 288,
      "line1": "вул. Марії Цвєтаєвої 20",
      "line2": "St. Marii Tsvietayevoi, 20",
      "postcode": "02218",
      "city": "Київ",
      "location_id": 1
    },
    {
      "id": 289,
      "line1": "вул. Гаврилюка 7",
      "line2": "St. Havryliuka, 7",
      "postcode": "02218",
      "city": "Київ",
      "location_id": 1
    },
    {
      "id": 290,
      "line1": "вул. Вільхова 5",
      "line2": "St. Vilkhova, 5",
      "postcode": "02218",
      "city": "Львів",
      "location_id": 14
    },
    {
      "id": 291,
      "line1": "вул. В.Стуса 10",
      "line2": "St. V.Stusa, 10",
      "postcode": "02218",
      "city": "Львів",
      "location_id": 14
    },
    {
      "id": 292,
      "line1": "вул. Білоцерківська 54",
      "line2": "St. Bilotserkivska, 54",
      "postcode": "02218",
      "city": "Львів",
      "location_id": 14
    },
    {
      "id": 293,
      "line1": "вул. Проліскова 22",
      "line2": "St. Proliskova, 22",
      "postcode": "02218",
      "city": "Львів",
      "location_id": 14
    },
    {
      "id": 294,
      "line1": "вул. Залізнична 92",
      "line2": "St. Zaliznychna, 92",
      "postcode": "02218",
      "city": "Львів",
      "location_id": 14
    },
    {
      "id": 295,
      "line1": "вул. Івасюка 5",
      "line2": "St. Ivasyuka, 5",
      "postcode": "02218",
      "city": "Львів",
      "location_id": 14
    },
    {
      "id": 296,
      "line1": "вул. Стрілецька 14",
      "line2": "St. Striletska, 14",
      "postcode": "02218",
      "city": "Львів",
      "location_id": 14
    },
    {
      "id": 297,
      "line1": "вул. Садова 6",
      "line2": "St. Sadova, 6",
      "postcode": "02218",
      "city": "Львів",
      "location_id": 14
    },
    {
      "id": 298,
      "line1": "вул. С.Наливайка 32",
      "line2": "St. S.Nalyvayka, 32",
      "postcode": "02218",
      "city": "Львів",
      "location_id": 14
    },
    {
      "id": 299,
      "line1": "вул. Червоної Калини 24",
      "line2": "St. Chervonoi Kalyny, 24",
      "postcode": "02218",
      "city": "Київ",
      "location_id": 1
    },
    {
      "id": 300,
      "line1": "вул. Сонячна 20",
      "line2": "St. Sonyachna, 20",
      "postcode": "02218",
      "city": "Київська область, м.Крюківщина",
      "location_id": 2
    },
    {
      "id": 301,
      "line1": "вул. Воскресенська 3",
      "line2": "St. Voskresenska, 3",
      "postcode": "02218",
      "city": "Київ",
      "location_id": 1
    },
    {
      "id": 302,
      "line1": "вул. Польова 2",
      "line2": "St. Polova, 2",
      "postcode": "02218",
      "city": "Київ",
      "location_id": 1
    },
    {
      "id": 303,
      "line1": "вул. Жулянська 55",
      "line2": "St. Zhulyanska, 55",
      "postcode": "02218",
      "city": "Київ",
      "location_id": 1
    },
    {
      "id": 304,
      "line1": "вул. Навізна 21",
      "line2": "St. Navizna, 21",
      "postcode": "02218",
      "city": "Київ",
      "location_id": 1
    },
    {
      "id": 305,
      "line1": "вул. Мальовнича 4",
      "line2": "St. Malovnycha, 4",
      "postcode": "02218",
      "city": "Київ",
      "location_id": 1
    },
    {
      "id": 306,
      "line1": "вул. Маяковського 200",
      "line2": "St. Mayakovskoho, 200",
      "postcode": "02218",
      "city": "Київ",
      "location_id": 1
    },
    {
      "id": 307,
      "line1": "вул. Мінська 24",
      "line2": "St. Minska, 24",
      "postcode": "02218",
      "city": "Київ",
      "location_id": 1
    },
    {
      "id": 308,
      "line1": "вул. Ореста Левицького 8",
      "line2": "St. Oresta Levytskoho, 8",
      "postcode": "02218",
      "city": "Київ",
      "location_id": 1
    },
    {
      "id": 309,
      "line1": "вул. Іртишська 1",
      "line2": "St. Irtyshska, 1",
      "postcode": "02218",
      "city": "Київ",
      "location_id": 1
    },
    {
      "id": 310,
      "line1": "вул. Любченка Панаса 25",
      "line2": "St. Liubchenka Panasa, 25",
      "postcode": "02218",
      "city": "Київ",
      "location_id": 1
    },
    {
      "id": 311,
      "line1": "бул. Перова 70",
      "line2": "Blvd. Perova, 70",
      "postcode": "02218",
      "city": "Київ",
      "location_id": 1
    },
    {
      "id": 312,
      "line1": "вул. Ореста Левицького 8",
      "line2": "St. Oresta Levytskoho, 8",
      "postcode": "02218",
      "city": "Київ",
      "location_id": 1
    },
    {
      "id": 313,
      "line1": "вул. Любченка Панаса 25",
      "line2": "St. Liubchenka Panasa, 25",
      "postcode": "02218",
      "city": "Київ",
      "location_id": 1
    },
    {
      "id": 314,
      "line1": "вул. Яворницького, 8",
      "line2": "St. Yavornytskoho, 8",
      "postcode": "02218",
      "city": "Львів",
      "location_id": 14
    },
    {
      "id": 315,
      "line1": "вул. Ореста Левицького 8",
      "line2": "St. Oresta Levytskoho, 8",
      "postcode": "02218",
      "city": "Київ",
      "location_id": 1
    },
    {
      "id": 316,
      "line1": "вул. Іртишська 1",
      "line2": "St. Irtyshska, 1",
      "postcode": "02218",
      "city": "Київ",
      "location_id": 1
    },
    {
      "id": 317,
      "line1": "вул. Аніщенка 44",
      "line2": "St. Anishchenka, 44",
      "postcode": "02218",
      "city": "Київ",
      "location_id": 1
    },
    {
      "id": 318,
      "line1": "вул. Ватутіна 100",
      "line2": "St. Vatutina, 100",
      "postcode": "02218",
      "city": "Київ",
      "location_id": 1
    }
  ]
}
